NORAD_CAT_ID,OBJECT_NAME,OBJECT_TYPE,EPOCH,MEAN_MOTION,ECCENTRICITY,INCLINATION,RA_OF_ASC_NODE,ARG_OF_PERICENTER,MEAN_ANOMALY,BSTAR,MEAN_MOTION_DOT,MEAN_MOTION_DDOT,TLE_LINE0,TLE_LINE1,TLE_LINE2,SEMIMAJOR_AXIS,PERIOD,APOGEE,PERIGEE,DECAYED
54188.0,STARLINK-5238,PAYLOAD,2023-04-16 07:01:25,15.08845598,0.0001282,53.2175,65.6087,83.8701,276.2437,8.675e-05,1.093e-05,0.0,0 STARLINK-5238,1 54188U 22141AH  23106.29265978  .00001093  00000-0  86750-4 0  9999,2 54188  53.2175  65.6087 0001282  83.8701 276.2437 15.08845598 26218,6917.863,95.437,540.615,538.841,0.0
54188.0,STARLINK-5238,PAYLOAD,2023-04-17 06:52:12,15.08847384,0.0001337,53.2185,61.1462,97.0569,263.0575,3.4791e-05,2.66e-06,0.0,0 STARLINK-5238,1 54188U 22141AH  23107.28625815  .00000266  00000-0  34791-4 0  9998,2 54188  53.2185  61.1462 0001337  97.0569 263.0575 15.08847384 26590,6917.858,95.437,540.648,538.798,0.0
54188.0,STARLINK-5238,PAYLOAD,2023-04-18 05:07:36,15.08848679,0.0001161,53.2186,56.9845,90.9476,269.1649,0.00016539,2.346e-05,0.0,0 STARLINK-5238,1 54188U 22141AH  23108.21361603  .00002346  00000-0  16539-3 0  9994,2 54188  53.2186  56.9845 0001161  90.9476 269.1649 15.08848679 26500,6917.854,95.437,540.522,538.916,0.0
54188.0,STARLINK-5238,PAYLOAD,2023-04-18 21:01:28,15.08835938,0.0001417,53.2191,54.0143,108.8311,251.2835,-1.2636e-05,-4.89e-06,0.0,0 STARLINK-5238,1 54188U 22141AH  23108.87602877 -.00000489  00000-0 -12636-4 0  9990,2 54188  53.2191  54.0143 0001417 108.8311 251.2835 15.08835938 26836,6917.893,95.438,540.738,538.778,0.0
54188.0,STARLINK-5238,PAYLOAD,2023-04-19 06:33:47,15.08838528,0.000113,53.2181,52.2287,95.7485,264.3636,1.8222e-05,2e-08,0.0,0 STARLINK-5238,1 54188U 22141AH  23109.27346591  .00000002  00000-0  18222-4 0  9999,2 54188  53.2181  52.2287 0001130  95.7485 264.3636 15.08838528 26665,6917.885,95.438,540.532,538.968,0.0
54188.0,STARLINK-5238,PAYLOAD,2023-04-21 12:36:54,15.08840676,0.0001206,53.2188,42.119,88.725,271.3881,0.00011176,1.491e-05,0.0,0 STARLINK-5238,1 54188U 22141AH  23111.52563485  .00001491  00000-0  11176-3 0  9996,2 54188  53.2188  42.1190 0001206  88.7250 271.3881 15.08840676 27005,6917.878,95.438,540.578,538.909,0.0
54188.0,STARLINK-5238,PAYLOAD,2023-04-22 01:19:59,15.08852624,9.64e-05,53.2175,39.7403,86.6338,273.4764,0.00012646,1.726e-05,0.0,0 STARLINK-5238,1 54188U 22141AH  23112.05554692  .00001726  00000-0  12646-3 0  9999,2 54188  53.2175  39.7403 0000964  86.6338 273.4764 15.08852624 27317,6917.842,95.437,540.374,539.04,0.0
54188.0,STARLINK-5238,PAYLOAD,2023-04-22 02:55:21,15.08863002,0.0001138,53.2183,39.4433,85.9758,274.1364,0.00019166,2.766e-05,0.0,0 STARLINK-5238,1 54188U 22141AH  23112.12177668  .00002766  00000-0  19166-3 0  9990,2 54188  53.2183  39.4433 0001138  85.9758 274.1364 15.08863002 27325,6917.81,95.436,540.462,538.888,0.0
54188.0,STARLINK-5238,PAYLOAD,2023-04-23 01:10:46,15.08845902,0.0001282,53.2191,35.2803,83.8624,276.2514,0.00010359,1.361e-05,0.0,0 STARLINK-5238,1 54188U 22141AH  23113.04914898  .00001361  00000-0  10359-3 0  9991,2 54188  53.2191  35.2803 0001282  83.8624 276.2514 15.08845902 27462,6917.862,95.437,540.614,538.84,0.0
54188.0,STARLINK-5238,PAYLOAD,2023-04-24 04:12:18,15.08865775,0.0001653,53.2178,30.2262,90.6373,269.4809,0.00010511,1.386e-05,0.0,0 STARLINK-5238,1 54188U 22141AH  23114.17521206  .00001386  00000-0  10511-3 0  9990,2 54188  53.2178  30.2262 0001653  90.6373 269.4809 15.08865775 27630,6917.802,95.436,540.81,538.523,0.0
54188.0,STARLINK-5238,PAYLOAD,2023-04-25 00:52:19,15.08823465,0.0001531,53.2176,26.3604,77.5266,282.5897,-0.00038354,-6.384e-05,0.0,0 STARLINK-5238,1 54188U 22141AH  23115.03633908 -.00006384  00000-0 -38354-3 0  9999,2 54188  53.2176  26.3604 0001531  77.5266 282.5897 15.08823465 27536,6917.931,95.439,540.855,538.737,0.0
54188.0,STARLINK-5238,PAYLOAD,2023-04-26 18:12:23,15.08815462,0.000171,53.2179,18.6296,87.0741,273.0447,0.0004502,6.879e-05,0.0,0 STARLINK-5238,1 54188U 22141AH  23116.75860604  .00006879  00000-0  45020-3 0  9999,2 54188  53.2179  18.6296 0001710  87.0741 273.0447 15.08815462 27795,6917.955,95.439,541.003,538.637,0.0
54188.0,STARLINK-5238,PAYLOAD,2023-04-27 00:33:54,15.08843312,0.0001642,53.2187,17.4436,95.8232,264.2947,7.0939e-05,8.41e-06,0.0,0 STARLINK-5238,1 54188U 22141AH  23117.02355122  .00000841  00000-0  70939-4 0  9995,2 54188  53.2187  17.4436 0001642  95.8232 264.2947 15.08843312 28066,6917.87,95.437,540.871,538.599,0.0
54188.0,STARLINK-5238,PAYLOAD,2023-04-28 00:24:42,15.08838814,0.0001537,53.2181,12.9819,96.36,263.7567,0.00024287,3.579e-05,0.0,0 STARLINK-5238,1 54188U 22141AH  23118.01715936  .00003579  00000-0  24287-3 0  9993,2 54188  53.2181  12.9819 0001537  96.3600 263.7567 15.08838814 28213,6917.884,95.438,540.812,538.686,0.0
54188.0,STARLINK-5238,PAYLOAD,2023-04-28 09:57:01,15.08837135,0.0001576,53.2182,11.1982,100.9496,259.1673,0.00016112,2.277e-05,0.0,0 STARLINK-5238,1 54188U 22141AH  23118.41460291  .00002277  00000-0  16112-3 0  9990,2 54188  53.2182  11.1982 0001576 100.9496 259.1673 15.08837135 28047,6917.889,95.438,540.844,538.664,0.0
54188.0,STARLINK-5238,PAYLOAD,2023-04-29 00:15:29,15.08844352,0.0001554,53.2182,8.5201,100.0271,260.0897,-1.2193e-05,-4.82e-06,0.0,0 STARLINK-5238,1 54188U 22141AH  23119.01076091 -.00000482  00000-0 -12193-4 0  9992,2 54188  53.2182   8.5201 0001554 100.0271 260.0897 15.08844352 28362,6917.867,95.437,540.807,538.657,0.0
54188.0,STARLINK-5238,PAYLOAD,2023-04-30 01:41:39,15.08851444,0.000156,53.2178,3.7606,104.8701,255.2464,1.1419e-05,-1.06e-06,0.0,0 STARLINK-5238,1 54188U 22141AH  23120.07059273 -.00000106  00000-0  11419-4 0  9995,2 54188  53.2178   3.7606 0001560 104.8701 255.2464 15.08851444 28524,6917.845,95.437,540.79,538.631,0.0
54188.0,STARLINK-5238,PAYLOAD,2023-04-30 20:46:17,15.08834842,0.0001504,53.2175,0.1929,102.8012,257.3148,4.6908e-05,4.59e-06,0.0,0 STARLINK-5238,1 54188U 22141AH  23120.86548314  .00000459  00000-0  46908-4 0  9992,2 54188  53.2175   0.1929 0001504 102.8012 257.3148 15.08834842 28649,6917.896,95.438,540.802,538.721,0.0
54188.0,STARLINK-5238,PAYLOAD,2023-04-30 22:21:40,15.08837751,0.0001478,53.2177,359.8959,105.1988,254.9168,-2.2344e-05,-6.44e-06,0.0,0 STARLINK-5238,1 54188U 22141AH  23120.93172382 -.00000644  00000-0 -22344-4 0  9994,2 54188  53.2177 359.8959 0001478 105.1988 254.9168 15.08837751 28429,6917.887,95.438,540.775,538.73,0.0
54188.0,STARLINK-5238,PAYLOAD,2023-05-01 22:12:27,15.08843019,0.0001531,53.2183,355.4341,109.6927,250.4231,3.8589e-05,3.26e-06,0.0,0 STARLINK-5238,1 54188U 22141AH  23121.92531910  .00000326  00000-0  38589-4 0  9993,2 54188  53.2183 355.4341 0001531 109.6927 250.4231 15.08843019 28577,6917.871,95.437,540.795,538.677,0.0
54188.0,STARLINK-5238,PAYLOAD,2023-05-02 20:27:51,15.08842057,0.0001343,53.2178,351.2684,88.6684,271.4462,8.2766e-05,1.03e-05,0.0,0 STARLINK-5238,1 54188U 22141AH  23122.85267824  .00001030  00000-0  82766-4 0  9995,2 54188  53.2178 351.2684 0001343  88.6684 271.4462 15.08842057 28718,6917.874,95.437,540.668,538.81,0.0
54188.0,STARLINK-5238,PAYLOAD,2023-05-03 01:14:00,15.0884788,0.0001412,53.2184,350.3726,88.8832,271.2322,0.00012199,1.654e-05,0.0,0 STARLINK-5238,1 54188U 22141AH  23123.05139256  .00001654  00000-0  12199-3 0  9999,2 54188  53.2184 350.3726 0001412  88.8832 271.2322 15.08847880 28976,6917.856,95.437,540.698,538.745,0.0
54188.0,STARLINK-5238,PAYLOAD,2023-05-03 10:46:18,15.08859359,0.0001189,53.2159,348.5909,105.1451,254.9672,9.107e-05,1.163e-05,0.0,0 STARLINK-5238,1 54188U 22141AH  23123.44882455  .00001163  00000-0  91070-4 0  9999,2 54188  53.2159 348.5909 0001189 105.1451 254.9672 15.08859359 28803,6917.821,95.436,540.509,538.864,0.0
54188.0,STARLINK-5238,PAYLOAD,2023-05-03 21:54:00,15.0885379,0.0001106,53.2164,346.5102,103.693,256.4185,7.1519e-05,8.51e-06,0.0,0 STARLINK-5238,1 54188U 22141AH  23123.91250492  .00000851  00000-0  71519-4 0  9990,2 54188  53.2164 346.5102 0001106 103.6930 256.4185 15.08853790 28872,6917.838,95.437,540.468,538.938,0.0
54188.0,STARLINK-5238,PAYLOAD,2023-05-04 07:26:20,15.08839688,0.0001297,53.2176,344.7272,87.9838,272.1303,-2.5056e-06,-3.28e-06,0.0,0 STARLINK-5238,1 54188U 22141AH  23124.30995522 -.00000328  00000-0 -25056-5 0  9991,2 54188  53.2176 344.7272 0001297  87.9838 272.1303 15.08839688 29165,6917.881,95.438,540.644,538.849,0.0
54188.0,STARLINK-5238,PAYLOAD,2023-05-04 21:44:49,15.08832645,0.0001141,53.2154,342.0566,121.0839,239.0265,-0.00019611,-3.407e-05,0.0,0 STARLINK-5238,1 54188U 22141AH  23124.90612655 -.00003407  00000-0 -19611-3 0  9999,2 54188  53.2154 342.0566 0001141 121.0839 239.0265 15.08832645 29252,6917.903,95.438,540.557,538.979,0.0
54188.0,STARLINK-5238,PAYLOAD,2023-05-05 20:00:12,15.08836608,0.000101,53.216,337.8919,94.3066,265.8042,-1.8952e-05,-5.89e-06,0.0,0 STARLINK-5238,1 54188U 22141AH  23125.83348199 -.00000589  00000-0 -18952-4 0  9997,2 54188  53.2160 337.8919 0001010  94.3066 265.8042 15.08836608 29390,6917.891,95.438,540.454,539.057,0.0
54188.0,STARLINK-5238,PAYLOAD,2023-05-05 23:10:58,15.08841991,0.0001085,53.2152,337.2977,114.1009,246.0096,-6.9626e-06,-3.99e-06,0.0,0 STARLINK-5238,1 54188U 22141AH  23125.96595797 -.00000399  00000-0 -69626-5 0  9993,2 54188  53.2152 337.2977 0001085 114.1009 246.0096 15.08841991 29187,6917.874,95.437,540.49,538.989,0.0
54188.0,STARLINK-5238,PAYLOAD,2023-05-06 21:26:22,15.08838305,0.0001043,53.2159,333.1327,111.6673,248.4431,0.00017265,2.461e-05,0.0,0 STARLINK-5238,1 54188U 22141AH  23126.89331945  .00002461  00000-0  17265-3 0  9999,2 54188  53.2159 333.1327 0001043 111.6673 248.4431 15.08838305 29556,6917.886,95.438,540.472,539.029,0.0
54188.0,STARLINK-5238,PAYLOAD,2023-05-07 19:41:47,15.08837779,0.0001123,53.2172,328.9669,95.6063,264.5057,2.7735e-05,1.54e-06,0.0,0 STARLINK-5238,1 54188U 22141AH  23127.82068908  .00000154  00000-0  27735-4 0  9990,2 54188  53.2172 328.9669 0001123  95.6063 264.5057 15.08837779 29697,6917.887,95.438,540.529,538.975,0.0
